SL-16 R/B               
1 22566U 93016B   26062.48966914  .00000328  00000+0  19271-3 0  9998
2 22566  71.0057 228.2030 0011355 322.7971  37.2364 14.15305152701297
COSMOS 2242             
1 22626U 93024A   26062.08336529  .00002113  00000+0  18334-3 0  9996
2 22626  82.5158 273.0370 0015706 332.5365  27.5025 14.96516179779404
SL-16 R/B               
1 22803U 93059B   26062.33633809  .00000044  00000+0  45693-4 0  9990
2 22803  70.9919  24.5232 0018811 225.5496 134.4089 14.17232073678631
ARIANE 40 R/B           
1 22830U 93061H   26062.20433065  .00000240  00000+0  10363-3 0  9994
2 22830  98.4931 131.2197 0009673 306.5272  53.5021 14.32856840693178
COSMOS 2278             
1 23087U 94023A   26062.51547821  .00000317  00000+0  19017-3 0  9998
2 23087  71.0542 188.0131 0007644  25.7905 334.3597 14.14375511643933
SL-16 R/B               
1 23088U 94023B   26062.49402748 -.00000094  00000+0 -23975-4 0  9997
2 23088  70.9987  83.8998 0005606 291.6296  68.4229 14.15013435645216
SL-16 R/B               
1 23343U 94074B   26062.09784963  .00000583  00000+0  84858-4 0  9993
2 23343  97.7117  93.1824 0005358 235.9473 187.4192 14.79398708686277
SL-16 R/B               
1 23405U 94077B   26062.26606304 -.00000246  00000+0 -10114-3 0  9997
2 23405  70.9851   6.0016 0003451 221.0572 139.0291 14.15562406615327
ARIANE 40+ R/B          
1 23561U 95021B   26062.20659756  .00000349  00000+0  12508-3 0  9994
2 23561  98.4511 133.7767 0007370 153.7854 225.2684 14.39766786618316
SL-16 R/B               
1 23705U 95058B   26062.48474784 -.00000030  00000+0  88790-5 0  9996
2 23705  71.0210 193.2809 0011020 136.7854 223.4135 14.15492732566971
SL-16 R/B               
1 24298U 96051B   26062.50880157  .00000084  00000+0  72051-4 0  9996
2 24298  70.7595 188.3202 0015637 157.2033 202.9784 14.12413741520778
ORBVIEW 2 (SEASTAR)     
1 24883U 97037A   26062.42350351  .00000436  00000+0  16786-3 0  9993
2 24883  98.8555 226.5696 0003185  84.6018 275.5529 14.35489418507573
